CUTE-1 (CO-55)          
1 27844U 03031E   26189.95445865  .00000197  00000+0  10410-3 0  9999
2 27844  98.6739 198.2397 0010684 118.8005 241.4249 14.24348882194778
CUBESAT XI-IV (CO-57)   
1 27848U 03031J   26189.46187375  .00000184  00000+0  99678-4 0  9998
2 27848  98.6772 197.4488 0010258 137.0463 223.1519 14.23632050194408
CUBESAT XI-V            
1 28895U 05043F   26190.68856933  .00000955  00000+0  15777-3 0  9998
2 28895  98.3008 346.7863 0015063 131.3789 228.8716 14.72693331105061
CUTE-1.7+APD II (CO-65) 
1 32785U 08021C   26190.85228278  .00003026  00000+0  19206-3 0  9997
2 32785  97.8283 172.7468 0007395 321.0588  39.0107 15.09668455988611
CANX-2                  
1 32790U 08021H   26190.75028235  .00002661  00000+0  18803-3 0  9999
2 32790  97.8653 170.9698 0009345 337.3956  22.6857 15.05783400988208
SEEDS II (CO-66)        
1 32791U 08021J   26189.93516932  .00012773  00000+0  39659-3 0  9991
2 32791  97.7528 188.8830 0002351 170.9352 189.1933 15.33517693990629
SWISSCUBE               
1 35932U 09051B   26190.54084366  .00000644  00000+0  13666-3 0  9999
2 35932  98.4016  98.8171 0007556 134.3316 225.8505 14.62524151892423
BEESAT-1                
1 35933U 09051C   26190.56195696  .00000529  00000+0  11590-3 0  9997
2 35933  98.3943  98.4270 0005799 144.7622 215.3963 14.61756321892450
ITUPSAT1                
1 35935U 09051E   26189.54478970  .00000560  00000+0  12544-3 0  9999
2 35935  98.4027  96.5634 0007610 162.4704 197.6760 14.60472478891858
TISAT 1                 
1 36799U 10035E   26190.58372939  .00014864  00000+0  47466-3 0  9999
2 36799  98.0702 139.1348 0004097 131.0944 229.0650 15.32585813871138
STRAND-1                
1 39090U 13009E   26190.75261338  .00000184  00000+0  76183-4 0  9998
2 39090  98.3931  10.4326 0009109 156.1916 203.9694 14.37176789700306
BRITE-AUSTRIA           
1 39091U 13009F   26189.93945591  .00000114  00000+0  53493-4 0  9999
2 39091  98.4005   8.8378 0010385 168.5831 191.5593 14.36550763700171
NEE-01 PEGASO           
1 39151U 13018B   26190.63966525  .00001233  00000+0  12199-3 0  9995
2 39151  98.1250 335.5366 0013875  90.6498 269.6310 14.93776228714050
POPACS 2                
1 39269U 13055E   26190.24884197  .00014766 -88151-6  24179-3 0  9994
2 39269  80.9909 118.9327 0415457 122.9592 241.2292 14.91853625666502
POPACS 3                
1 39270U 13055F   26190.72250111  .00009573  00000+0  22681-3 0  9997
2 39270  80.9989 204.7441 0549453   1.3733 358.8814 14.56564078641830
ZACUBE-1 (TSHEPISOSAT)  
1 39417U 13066B   26190.13615696  .00001581  00000+0  12533-3 0  9996
2 39417  97.8016 152.5825 0043657 174.6140 185.5562 15.01311101684029
WNISAT-1                
1 39423U 13066H   26190.72025800  .00000850  00000+0  16227-3 0  9992
2 39423  97.7228 338.2802 0163527 160.4768 200.2795 14.58111963670018
TRITON-1                
1 39427U 13066M   26190.85065219  .00001715  00000+0  20926-3 0  9990
2 39427  97.8224 100.1399 0090157 159.4144 201.0739 14.81785190677446
GOMX-1                  
1 39430U 13066Q   26190.79220171  .00000980  00000+0  15327-3 0  9999
2 39430  97.6479  29.8286 0128782   5.5778 354.6828 14.69533953673233
CUBEBUG-2 (LO-74)       
1 39440U 13066AA  26190.10024051  .00001725  00000+0  16295-3 0  9997
2 39440  97.8908 139.1745 0056180 316.1471  43.5295 14.93942821680269
NEE-02 KRYSAOR          
1 39441U 13066AB  26190.62185191  .00001435  00000+0  16157-3 0  9993
2 39441  97.8891 129.6781 0065916 357.6613   2.4284 14.86724098679536
FUNCUBE-1 (AO-73)       
1 39444U 13066AE  26190.65921882  .00005060  00000+0  31236-3 0  9997
2 39444  97.8287 162.5794 0037793 125.6357 234.8401 15.09773935683052
UWE-3                   
1 39446U 13066AG  26189.33612893  .00001733  00000+0  15204-3 0  9991
2 39446  97.8696 145.5560 0047521 248.4998 111.1154 14.97171964680740
BRITE-CA1 (TORONTO)     
1 40020U 14033L   26190.18755172  .00000733  00000+0  11766-3 0  9997
2 40020  97.9764 318.7133 0078005 205.5751 154.1590 14.72715027645456
DUCHIFAT-1              
1 40021U 14033M   26190.11683618  .00097268  00000+0  81159-3 0  9998
2 40021  98.0435 252.4424 0001719 258.2829 101.8238 15.69759950659183
NANOSATC-BR1            
1 40024U 14033Q   26189.89295221  .00012243  00000+0  39647-3 0  9998
2 40024  98.0720 224.2139 0005305 111.5840 248.5966 15.32184216657308
QB50P1                  
1 40025U 14033R   26189.96268602  .00005242  00000+0  25682-3 0  9995
2 40025  98.0972 202.6398 0009975 143.0121 217.1801 15.18602701656334
QB50P2                  
1 40032U 14033Y   26190.81602461  .00005365  00000+0  28728-3 0  9994
2 40032  98.0761 189.1099 0009315  98.7744 261.4542 15.15461422656097
PERSEUS-M2              
1 40037U 14033AD  26190.74445196  .00001320  00000+0  12440-3 0  9992
2 40037  97.9966 141.7453 0010664 218.6967 141.3490 14.95576334654153
PERSEUS-M1              
1 40039U 14033AF  26190.58181363  .00001243  00000+0  11701-3 0  9992
2 40039  97.9647 135.0829 0010603 216.9043 143.1448 14.95701333653985
